[
    {
        "Altitude(m)": 605459.0188415011,
        "Argument of Periapsis(deg)": 0.0,
        "Eccentricity": 0.0,
        "Inclination(deg)": 60.0,
        "Latitude(deg)": 27.98818167407424,
        "Longitude(deg)": -22.201466575049626,
        "Mean Anomaly(deg)": 32.7273,
        "RAAN(deg)": 60.0,
        "Satellite Name": "Test1 266",
        "Satellite Number": 266,
        "Semi-Major Axis(m)": 6980739.136638005,
        "Time(s)": 0
    },
    {
        "Altitude(m)": 605535.8099312477,
        "Argument of Periapsis(deg)": 0.00010418945913296404,
        "Eccentricity": 0.0,
        "Inclination(deg)": 60.0,
        "Latitude(deg)": 28.50131179438631,
        "Longitude(deg)": -21.844522719904997,
        "Mean Anomaly(deg)": 33.347406145461825,
        "RAAN(deg)": 59.99957995086026,
        "Satellite Name": "Test1 266",
        "Satellite Number": 266,
        "Semi-Major Axis(m)": 6980739.136638005,
        "Time(s)": 10
    }
]